OBJECT_NAME,OBJECT_ID,EPOCH,MEAN_MOTION,ECCENTRICITY,INCLINATION,RA_OF_ASC_NODE,ARG_OF_PERICENTER,MEAN_ANOMALY,EPHEMERIS_TYPE,CLASSIFICATION_TYPE,NORAD_CAT_ID,ELEMENT_SET_NO,REV_AT_EPOCH,BSTAR,MEAN_MOTION_DOT,MEAN_MOTION_DDOT
SL-16 R/B,1996-051B,2026-06-27T12:18:13.029984,14.12449486,.0016353,70.7651,302.7963,321.9683,38.0281,0,U,24298,999,53715,.91076E-4,.119E-5,0
ORBVIEW 2 (SEASTAR),1997-037A,2026-06-27T11:23:46.284864,14.35558435,.000333,98.8695,345.7793,95.9714,264.1850,0,U,24883,999,52422,.10195E-3,.247E-5,0
SL-16 R/B,1998-043G,2026-06-27T11:11:29.468256,14.26070191,.0010817,98.8369,132.7142,59.5279,300.6967,0,U,25400,999,45463,.32296E-4,.32E-6,0
SL-16 R/B,1998-045B,2026-06-27T11:27:46.474272,14.16204093,.0008926,71.0121,310.6876,228.3536,131.6824,0,U,25407,999,44264,.14728E-3,.244E-5,0
ISS (ZARYA),1998-067A,2026-06-27T12:13:38.285760,15.49454046,.0004278,51.6322,248.9966,238.4942,121.5629,0,U,25544,999,57335,.12016E-3,.628E-4,0
CZ-4B R/B,1999-025C,2026-06-27T12:41:42.034272,14.18285132,.0037644,98.6479,220.1071,30.5201,134.7489,0,U,25732,999,40373,.48835E-4,.58E-6,0
OKEAN-O,1999-039A,2026-06-27T10:01:57.781632,14.80478913,.0001321,97.9312,237.0983,70.0617,290.0737,0,U,25860,999,45062,.85724E-4,.604E-5,0
SL-16 R/B,1999-039B,2026-06-27T10:19:37.583904,14.81854567,.0013384,97.9834,237.2640,260.2652,99.7049,0,U,25861,999,45311,.6745E-4,.48E-5,0
DELTA 2 R/B,1999-041E,2026-06-27T12:13:40.718784,14.12032751,.0500999,51.7628,222.5608,312.5267,43.4364,0,U,25876,999,37854,.20166E-3,.1017E-4,0
HELIOS 1B,1999-064A,2026-06-27T11:12:31.463712,14.88032211,.0002504,98.1607,83.9040,77.2898,282.8598,0,U,25977,999,70158,.15034E-3,.1322E-4,0
TERRA,1999-068A,2026-06-27T12:05:53.547072,14.61110705,.0002391,97.9451,227.6411,160.1344,307.1952,0,U,25994,999,41111,.84556E-4,.371E-5,0
SL-16 R/B,2000-006B,2026-06-27T12:30:57.250080,14.15838917,.0016192,71.0014,226.8959,6.7790,353.3549,0,U,26070,999,36410,.16274E-3,.273E-5,0
TITAN 4B R/B,2000-047B,2026-06-27T10:59:50.749728,15.10252485,.0045906,67.9891,91.6620,276.6946,82.8980,0,U,26474,999,40948,.18229E-3,.2924E-4,0
ENVISAT,2002-009A,2026-06-27T11:30:36.577728,14.39067070,.0001392,98.3838,129.5687,86.8172,23.8063,0,U,27386,999,27496,.38807E-4,.77E-6,0
IDEFIX & ARIANE 42P R/B,2002-021B,2026-06-27T09:46:37.676064,14.31086503,.0010866,98.5943,115.7798,220.6220,139.4153,0,U,27422,999,25971,.88923E-4,.191E-5,0
AQUA,2002-022A,2026-06-27T12:48:39.983904,14.62172836,.0000762,98.4281,148.0236,67.4659,43.7199,0,U,27424,999,28478,.16071E-3,.759E-5,0
CZ-4B R/B,2002-024C,2026-06-27T09:59:12.576192,14.14565710,.0051167,98.8696,231.1697,71.7881,299.9330,0,U,27432,999,24475,.41891E-4,.37E-6,0
MIDORI II (ADEOS-II),2002-056A,2026-06-27T11:57:31.563936,14.29354753,.0002073,98.7883,137.8460,63.5062,296.6331,0,U,27597,999,22598,.10528E-3,.223E-5,0
H-2A R/B,2002-056E,2026-06-27T11:45:10.967328,14.33826203,.006974,98.3316,134.7889,193.5469,280.7788,0,U,27601,999,22984,.77471E-4,.18E-5,0
CZ-4B R/B,2003-049C,2026-06-27T11:26:54.981600,14.55106215,.0046901,98.6899,177.7333,256.3813,103.2157,0,U,28059,999,20256,.70986E-4,.259E-5,0
CZ-2C R/B,2004-012C,2026-06-27T11:36:54.838656,15.81033322,.0010458,97.7075,255.3600,245.1508,114.8672,0,U,28222,999,22152,.63055E-3,.124034E-2,0
SL-16 R/B,2004-021B,2026-06-27T04:51:27.784224,14.14607658,.00068352,71.0006,2.6695,241.9571,118.0861,0,U,28353,999,13832,.96918065E-4,.139E-5,0
CZ-4B R/B,2004-035C,2026-06-27T12:38:32.625600,15.30766691,.0028995,97.3365,211.4839,299.3838,60.4509,0,U,28415,999,19670,.24241E-3,.7222E-4,0
CZ-2C R/B,2004-046B,2026-06-27T08:36:13.578336,14.27028714,.0139063,98.1938,86.5035,190.0356,169.8043,0,U,28480,999,12414,.47712E-4,.88E-6,0
ARIANE 5 R/B,2004-049H,2026-06-27T10:28:13.428192,14.85460597,.0083741,98.2726,351.0853,356.3286,3.7303,0,U,28499,999,16208,.67782E-4,.557E-5,0
CZ-2D R/B,2005-024B,2026-06-27T11:31:47.512992,15.70685458,.0001311,97.3480,198.4300,21.6139,338.5179,0,U,28738,999,15695,.48661E-3,.60272E-3,0
ALOS (DAICHI),2006-002A,2026-06-27T10:28:28.918848,14.70069926,.0001082,98.1328,133.9721,59.1246,301.0066,0,U,28931,999,8960,.18889E-3,.1085E-4,0
H-2A R/B,2006-002B,2026-06-27T09:39:59.361696,15.18192685,.0049862,98.2566,335.1571,226.8243,132.8817,0,U,28932,999,11107,.37972E-3,.7938E-4,0
RESURS-DK 1,2006-021A,2026-06-27T11:30:32.992128,15.13257713,.0006737,69.9338,312.9106,287.0191,73.0237,0,U,29228,999,10413,.13184E-3,.2242E-4,0
CZ-4B R/B,2006-046C,2026-06-27T12:53:44.326176,15.17855546,.0031129,97.5450,223.1122,244.9264,114.8738,0,U,29507,999,7670,.21181E-3,.4271E-4,0
CZ-2C R/B,2007-010B,2026-06-27T13:21:41.961024,14.20278208,.0058405,98.4107,286.4008,335.8794,23.9650,0,U,31114,999,99531,.45581E-4,.58E-6,0
