SL-16 R/B               
1 24298U 96051B   26178.51265081  .00000119  00000+0  91076-4 0  9995
2 24298  70.7651 302.7963 0016353 321.9683  38.0281 14.12449486537159
ORBVIEW 2 (SEASTAR)     
1 24883U 97037A   26178.47484126  .00000247  00000+0  10195-3 0  9992
2 24883  98.8695 345.7793 0003330  95.9714 264.1850 14.35558435524228
SL-16 R/B               
1 25400U 98043G   26178.46631329  .00000032  00000+0  32296-4 0  9993
2 25400  98.8369 132.7142 0010817  59.5279 300.6967 14.26070191454634
SL-16 R/B               
1 25407U 98045B   26178.47762123  .00000244  00000+0  14728-3 0  9994
2 25407  71.0121 310.6876 0008926 228.3536 131.6824 14.16204093442642
ISS (ZARYA)             
1 25544U 98067A   26178.50947090  .00006280  00000+0  12016-3 0  9996
2 25544  51.6322 248.9966 0004278 238.4942 121.5629 15.49454046573359
CZ-4B R/B               
1 25732U 99025C   26178.52895873  .00000058  00000+0  48835-4 0  9999
2 25732  98.6479 220.1071 0037644  30.5201 134.7489 14.18285132403730
OKEAN-O                 
1 25860U 99039A   26178.41802988  .00000604  00000+0  85724-4 0  9994
2 25860  97.9312 237.0983 0001321  70.0617 290.0737 14.80478913450624
SL-16 R/B               
1 25861U 99039B   26178.43029611  .00000480  00000+0  67450-4 0  9999
2 25861  97.9834 237.2640 0013384 260.2652  99.7049 14.81854567453111
DELTA 2 R/B             
1 25876U 99041E   26178.50949906  .00001017  00000+0  20166-3 0  9993
2 25876  51.7628 222.5608 0500999 312.5267  43.4364 14.12032751378549
HELIOS 1B               
1 25977U 99064A   26178.46703083  .00001322  00000+0  15034-3 0  9996
2 25977  98.1607  83.9040 0002504  77.2898 282.8598 14.88032211701582
TERRA                   
1 25994U 99068A   26178.50409198  .00000371  00000+0  84556-4 0  9993
2 25994  97.9451 227.6411 0002391 160.1344 307.1952 14.61110705411114
SL-16 R/B               
1 26070U 00006B   26178.52149595  .00000273  00000+0  16274-3 0  9999
2 26070  71.0014 226.8959 0016192   6.7790 353.3549 14.15838917364102
TITAN 4B R/B            
1 26474U 00047B   26178.45822627  .00002924  00000+0  18229-3 0  9995
2 26474  67.9891  91.6620 0045906 276.6946  82.8980 15.10252485409486
ENVISAT                 
1 27386U 02009A   26178.47959002  .00000077  00000+0  38807-4 0  9990
2 27386  98.3838 129.5687 0001392  86.8172  23.8063 14.39067070274969
IDEFIX & ARIANE 42P R/B 
1 27422U 02021B   26178.40738051  .00000191  00000+0  88923-4 0  9998
2 27422  98.5943 115.7798 0010866 220.6220 139.4153 14.31086503259711
AQUA                    
1 27424U 02022A   26178.53379611  .00000759  00000+0  16071-3 0  9992
2 27424  98.4281 148.0236 0000762  67.4659  43.7199 14.62172836284781
CZ-4B R/B               
1 27432U 02024C   26178.41611778  .00000037  00000+0  41891-4 0  9991
2 27432  98.8696 231.1697 0051167  71.7881 299.9330 14.14565710244758
MIDORI II (ADEOS-II)    
1 27597U 02056A   26178.49828199  .00000223  00000+0  10528-3 0  9992
2 27597  98.7883 137.8460 0002073  63.5062 296.6331 14.29354753225987
H-2A R/B                
1 27601U 02056E   26178.48971027  .00000180  00000+0  77471-4 0  9999
2 27601  98.3316 134.7889 0069740 193.5469 280.7788 14.33826203229848
CZ-4B R/B               
1 28059U 03049C   26178.47702525  .00000259  00000+0  70986-4 0  9995
2 28059  98.6899 177.7333 0046901 256.3813 103.2157 14.55106215202568
CZ-2C R/B               
1 28222U 04012C   26178.48396804  .00124034  00000+0  63055-3 0  9994
2 28222  97.7075 255.3600 0010458 245.1508 114.8672 15.81033322221526
SL-16 R/B               
1 28353U 04021B   26178.20240491  .00000139  00000+0  96918-4 0  9993
2 28353  71.0006   2.6695 0006835 241.9571 118.0861 14.14607658138320
CZ-4B R/B               
1 28415U 04035C   26178.52676650  .00007222  00000+0  24241-3 0  9991
2 28415  97.3365 211.4839 0028995 299.3838  60.4509 15.30766691196709
CZ-2C R/B               
1 28480U 04046B   26178.35849049  .00000088  00000+0  47712-4 0  9992
2 28480  98.1938  86.5035 0139063 190.0356 169.8043 14.27028714124144
ARIANE 5 R/B            
1 28499U 04049H   26178.43626653  .00000557  00000+0  67782-4 0  9998
2 28499  98.2726 351.0853 0083741 356.3286   3.7303 14.85460597162081
CZ-2D R/B               
1 28738U 05024B   26178.48041103  .00060272  00000+0  48661-3 0  9998
2 28738  97.3480 198.4300 0001311  21.6139 338.5179 15.70685458156955
ALOS (DAICHI)           
1 28931U 06002A   26178.43644582  .00001085  00000+0  18889-3 0  9991
2 28931  98.1328 133.9721 0001082  59.1246 301.0066 14.70069926 89603
H-2A R/B                
1 28932U 06002B   26178.40277039  .00007938  00000+0  37972-3 0  9995
2 28932  98.2566 335.1571 0049862 226.8243 132.8817 15.18192685111079
RESURS-DK 1             
1 29228U 06021A   26178.47954852  .00002242  00000+0  13184-3 0  9999
2 29228  69.9338 312.9106 0006737 287.0191  73.0237 15.13257713104132
CZ-4B R/B               
1 29507U 06046C   26178.53731859  .00004271  00000+0  21181-3 0  9993
2 29507  97.5450 223.1122 0031129 244.9264 114.8738 15.17855546 76704
CZ-2C R/B               
1 31114U 07010B   26178.55673566  .00000058  00000+0  45581-4 0  9994
2 31114  98.4107 286.4008 0058405 335.8794  23.9650 14.20278208995316
